start=new Date('2023-03-04T00:00:00.000Z').valueOf();
sats=[{"OBJECT_TYPE":"PAYLOAD","TIME_SYSTEM":"UTC","CLASSIFICATION_TYPE":"U","MEAN_MOTION_DDOT":"0.0000000000000","INCLINATION":"53.0541","TLE_LINE1":"1 48683U 21044AX  23062.78740793  .00014811  00000-0  10105-2 0  9992","DECAY_DATE":null,"ECCENTRICITY":"0.00018040","MEAN_ANOMALY":"265.9390","RA_OF_ASC_NODE":"338.2653","COUNTRY_CODE":"US","FILE":"3850400","OBJECT_NAME":"STARLINK-2756","TLE_LINE2":"2 48683  53.0541 338.2653 0001804  94.1805 265.9390 15.06421894 98325","RCS_SIZE":"LARGE","REV_AT_EPOCH":"9832","SITE":"AFETR","MEAN_ELEMENT_THEORY":"SGP4","BSTAR":"0.00101050000000","MEAN_MOTION_DOT":"0.00014811","CENTER_NAME":"EARTH","OBJECT_ID":"2021-044AX","MEAN_MOTION":"15.06421894","ARG_OF_PERICENTER":"94.1805","ELEMENT_SET_NO":"999","GP_ID":"227432092","EPOCH":"2023-03-03T18:53:52.045152","SEMIMAJOR_AXIS":"6925.281","NORAD_CAT_ID":"48683","PERIAPSIS":"545.897","LAUNCH_DATE":"2021-05-26","APOAPSIS":"548.396","PERIOD":"95.591","EPHEMERIS_TYPE":"0","REF_FRAME":"TEME"},{"PERIAPSIS":"545.772","GP_ID":"227400362","EPOCH":"2023-03-03T05:06:35.709984","SEMIMAJOR_AXIS":"6925.259","NORAD_CAT_ID":"48684","EPHEMERIS_TYPE":"0","REF_FRAME":"TEME","LAUNCH_DATE":"2021-05-26","APOAPSIS":"548.477","PERIOD":"95.590","MEAN_ELEMENT_THEORY":"SGP4","BSTAR":"0.00111850000000","MEAN_MOTION_DOT":"0.00016431","CENTER_NAME":"EARTH","OBJECT_ID":"2021-044AY","SITE":"AFETR","ARG_OF_PERICENTER":"122.3516","ELEMENT_SET_NO":"999","MEAN_MOTION":"15.06429153","MEAN_ANOMALY":"237.7662","RA_OF_ASC_NODE":"356.1887","COUNTRY_CODE":"US","REV_AT_EPOCH":"9802","FILE":"3850163","OBJECT_NAME":"STARLINK-2741","RCS_SIZE":"LARGE","TLE_LINE2":"2 48684  53.0547 356.1887 0001953 122.3516 237.7662 15.06429153 98020","CLASSIFICATION_TYPE":"U","MEAN_MOTION_DDOT":"0.0000000000000","OBJECT_TYPE":"PAYLOAD","TIME_SYSTEM":"UTC","TLE_LINE1":"1 48684U 21044AY  23062.21291331  .00016431  00000-0  11185-2 0  9999","INCLINATION":"53.0547","DECAY_DATE":null,"ECCENTRICITY":"0.00019530"},{"REV_AT_EPOCH":"9825","RCS_SIZE":"LARGE","TLE_LINE2":"2 48685  53.0541 340.5129 0001785 155.5033 204.6042 15.06434144 98252","FILE":"3850163","OBJECT_NAME":"STARLINK-2751","COUNTRY_CODE":"US","MEAN_ANOMALY":"204.6042","RA_OF_ASC_NODE":"340.5129","ECCENTRICITY":"0.00017850","INCLINATION":"53.0541","TLE_LINE1":"1 48685U 21044AZ  23062.29349897  .00029271  00000-0  19740-2 0  9990","DECAY_DATE":null,"CLASSIFICATION_TYPE":"U","MEAN_MOTION_DDOT":"0.0000000000000","OBJECT_TYPE":"PAYLOAD","TIME_SYSTEM":"UTC","REF_FRAME":"TEME","EPHEMERIS_TYPE":"0","APOAPSIS":"548.345","PERIOD":"95.590","LAUNCH_DATE":"2021-05-26","PERIAPSIS":"545.873","SEMIMAJOR_AXIS":"6925.244","NORAD_CAT_ID":"48685","GP_ID":"227401109","EPOCH":"2023-03-03T07:02:38.311008","ELEMENT_SET_NO":"999","ARG_OF_PERICENTER":"155.5033","MEAN_MOTION":"15.06434144","CENTER_NAME":"EARTH","OBJECT_ID":"2021-044AZ","BSTAR":"0.00197400000000","MEAN_ELEMENT_THEORY":"SGP4","MEAN_MOTION_DOT":"0.00029271","SITE":"AFETR"},{"COUNTRY_CODE":"US","RA_OF_ASC_NODE":"343.6940","MEAN_ANOMALY":"222.7921","RCS_SIZE":"LARGE","TLE_LINE2":"2 48686  53.0534 343.6940 0001868 137.3214 222.7921 15.06435807 98244","OBJECT_NAME":"STARLINK-2629","FILE":"3850400","REV_AT_EPOCH":"9824","TIME_SYSTEM":"UTC","OBJECT_TYPE":"PAYLOAD","MEAN_MOTION_DDOT":"0.0000000000000","CLASSIFICATION_TYPE":"U","ECCENTRICITY":"0.00018680","DECAY_DATE":null,"INCLINATION":"53.0534","TLE_LINE1":"1 48686U 21044BA  23062.75196592  .00019416  00000-0  13175-2 0  9990","NORAD_CAT_ID":"48686","SEMIMAJOR_AXIS":"6925.239","EPOCH":"2023-03-03T18:02:49.855488","GP_ID":"227432342","PERIAPSIS":"545.810","PERIOD":"95.590","APOAPSIS":"548.397","LAUNCH_DATE":"2021-05-26","REF_FRAME":"TEME","EPHEMERIS_TYPE":"0","SITE":"AFETR","OBJECT_ID":"2021-044BA","CENTER_NAME":"EARTH","MEAN_MOTION_DOT":"0.00019416","BSTAR":"0.00131750000000","MEAN_ELEMENT_THEORY":"SGP4","MEAN_MOTION":"15.06435807","ELEMENT_SET_NO":"999","ARG_OF_PERICENTER":"137.3214"},{"COUNTRY_CODE":"US","RA_OF_ASC_NODE":"335.9056","MEAN_ANOMALY":"235.0429","REV_AT_EPOCH":"9830","TLE_LINE2":"2 48687  53.0547 335.9056 0000478 125.0605 235.0429 15.06453404 98305","RCS_SIZE":"LARGE","OBJECT_NAME":"STARLINK-2627","FILE":"3850163","MEAN_MOTION_DDOT":"0.0000000000000","CLASSIFICATION_TYPE":"U","TIME_SYSTEM":"UTC","OBJECT_TYPE":"PAYLOAD","ECCENTRICITY":"0.00004780","DECAY_DATE":null,"TLE_LINE1":"1 48687U 21044BB  23062.19627547  .00023647  00000-0  15988-2 0  9993","INCLINATION":"53.0547","PERIAPSIS":"546.719","NORAD_CAT_ID":"48687","SEMIMAJOR_AXIS":"6925.185","EPOCH":"2023-03-03T04:42:38.200608","GP_ID":"227402088","REF_FRAME":"TEME","EPHEMERIS_TYPE":"0","APOAPSIS":"547.381","PERIOD":"95.589","LAUNCH_DATE":"2021-05-26","OBJECT_ID":"2021-044BB","CENTER_NAME":"EARTH","MEAN_MOTION_DOT":"0.00023647","BSTAR":"0.00159880000000","MEAN_ELEMENT_THEORY":"SGP4","SITE":"AFETR","ELEMENT_SET_NO":"999","ARG_OF_PERICENTER":"125.0605","MEAN_MOTION":"15.06453404"},{"ELEMENT_SET_NO":"999","ARG_OF_PERICENTER":"50.4789","MEAN_MOTION":"15.06435426","CENTER_NAME":"EARTH","OBJECT_ID":"2021-044BC","BSTAR":"0.00229790000000","MEAN_ELEMENT_THEORY":"SGP4","MEAN_MOTION_DOT":"0.00034145","SITE":"AFETR","REF_FRAME":"TEME","EPHEMERIS_TYPE":"0","PERIOD":"95.590","APOAPSIS":"547.985","LAUNCH_DATE":"2021-05-26","PERIAPSIS":"546.225","SEMIMAJOR_AXIS":"6925.240","NORAD_CAT_ID":"48688","GP_ID":"227400862","EPOCH":"2023-03-03T09:34:34.198752","ECCENTRICITY":"0.00012710","TLE_LINE1":"1 48688U 21044BC  23062.39900693  .00034145  00000-0  22979-2 0  9995","INCLINATION":"53.0536","DECAY_DATE":null,"CLASSIFICATION_TYPE":"U","MEAN_MOTION_DDOT":"0.0000000000000","OBJECT_TYPE":"PAYLOAD","TIME_SYSTEM":"UTC","REV_AT_EPOCH":"9833","TLE_LINE2":"2 48688  53.0536 334.9989 0001271  50.4789 309.6312 15.06435426 98330","RCS_SIZE":"LARGE","FILE":"3850163","OBJECT_NAME":"STARLINK-2742","COUNTRY_CODE":"US","MEAN_ANOMALY":"309.6312","RA_OF_ASC_NODE":"334.9989"},{"REV_AT_EPOCH":"9822","TLE_LINE2":"2 48689  53.0531 341.1394 0000930 127.4156 232.6918 15.06456032 98221","RCS_SIZE":"LARGE","OBJECT_NAME":"STARLINK-2617","FILE":"3850163","COUNTRY_CODE":"US","MEAN_ANOMALY":"232.6918","RA_OF_ASC_NODE":"341.1394","ECCENTRICITY":"0.00009300","INCLINATION":"53.0531","TLE_LINE1":"1 48689U 21044BD  23062.13867704  .00035607  00000-0  23937-2 0  9992","DECAY_DATE":null,"CLASSIFICATION_TYPE":"U","MEAN_MOTION_DDOT":"0.0000000000000","OBJECT_TYPE":"PAYLOAD","TIME_SYSTEM":"UTC","REF_FRAME":"TEME","EPHEMERIS_TYPE":"0","PERIOD":"95.589","APOAPSIS":"547.686","LAUNCH_DATE":"2021-05-26","PERIAPSIS":"546.398","SEMIMAJOR_AXIS":"6925.177","NORAD_CAT_ID":"48689","GP_ID":"227400610","EPOCH":"2023-03-03T03:19:41.696256","ELEMENT_SET_NO":"999","ARG_OF_PERICENTER":"127.4156","MEAN_MOTION":"15.06456032","CENTER_NAME":"EARTH","OBJECT_ID":"2021-044BD","BSTAR":"0.00239370000000","MEAN_ELEMENT_THEORY":"SGP4","MEAN_MOTION_DOT":"0.00035607","SITE":"AFETR"},{"COUNTRY_CODE":"US","MEAN_ANOMALY":"206.4702","RA_OF_ASC_NODE":"350.8390","REV_AT_EPOCH":"9809","TLE_LINE2":"2 48690  53.0553 350.8390 0001849 153.6381 206.4702 15.06438676 98090","RCS_SIZE":"LARGE","FILE":"3850163","OBJECT_NAME":"STARLINK-2740","CLASSIFICATION_TYPE":"U","MEAN_MOTION_DDOT":"0.0000000000000","OBJECT_TYPE":"PAYLOAD","TIME_SYSTEM":"UTC","ECCENTRICITY":"0.00018490","TLE_LINE1":"1 48690U 21044BE  23062.21148420  .00032951  00000-0  22184-2 0  9992","INCLINATION":"53.0553","DECAY_DATE":null,"PERIAPSIS":"545.815","SEMIMAJOR_AXIS":"6925.230","NORAD_CAT_ID":"48690","GP_ID":"227401353","EPOCH":"2023-03-03T05:04:32.234880","REF_FRAME":"TEME","EPHEMERIS_TYPE":"0","PERIOD":"95.590","APOAPSIS":"548.375","LAUNCH_DATE":"2021-05-26","CENTER_NAME":"EARTH","OBJECT_ID":"2021-044BE","BSTAR":"0.00221840000000","MEAN_ELEMENT_THEORY":"SGP4","MEAN_MOTION_DOT":"0.00032951","SITE":"AFETR","ELEMENT_SET_NO":"999","ARG_OF_PERICENTER":"153.6381","MEAN_MOTION":"15.06438676"},{"PERIAPSIS":"546.178","NORAD_CAT_ID":"48691","SEMIMAJOR_AXIS":"6925.241","EPOCH":"2023-03-03T04:25:23.339424","GP_ID":"227401589","REF_FRAME":"TEME","EPHEMERIS_TYPE":"0","APOAPSIS":"548.033","PERIOD":"95.590","LAUNCH_DATE":"2021-05-26","OBJECT_ID":"2021-044BF","CENTER_NAME":"EARTH","MEAN_MOTION_DOT":"0.00036670","BSTAR":"0.00246560000000","MEAN_ELEMENT_THEORY":"SGP4","SITE":"AFETR","ELEMENT_SET_NO":"999","ARG_OF_PERICENTER":"57.3238","MEAN_MOTION":"15.06435216","COUNTRY_CODE":"US","RA_OF_ASC_NODE":"345.9597","MEAN_ANOMALY":"302.7880","REV_AT_EPOCH":"9816","RCS_SIZE":"LARGE","TLE_LINE2":"2 48691  53.0539 345.9597 0001339  57.3238 302.7880 15.06435216 98166","FILE":"3850163","OBJECT_NAME":"STARLINK-2750","MEAN_MOTION_DDOT":"0.0000000000000","CLASSIFICATION_TYPE":"U","TIME_SYSTEM":"UTC","OBJECT_TYPE":"PAYLOAD","ECCENTRICITY":"0.00013390","DECAY_DATE":null,"INCLINATION":"53.0539","TLE_LINE1":"1 48691U 21044BF  23062.18429791  .00036670  00000-0  24656-2 0  9990"},{"SEMIMAJOR_AXIS":"6925.119","NORAD_CAT_ID":"48692","GP_ID":"227400363","EPOCH":"2023-03-03T04:04:10.500672","PERIAPSIS":"546.545","APOAPSIS":"547.423","PERIOD":"95.587","LAUNCH_DATE":"2021-05-26","REF_FRAME":"TEME","EPHEMERIS_TYPE":"0","SITE":"AFETR","CENTER_NAME":"EARTH","OBJECT_ID":"2021-044BG","BSTAR":"0.00347750000000","MEAN_ELEMENT_THEORY":"SGP4","MEAN_MOTION_DOT":"0.00052005","MEAN_MOTION":"15.06474937","ELEMENT_SET_NO":"999","ARG_OF_PERICENTER":"115.7962","COUNTRY_CODE":"US","MEAN_ANOMALY":"244.3092","RA_OF_ASC_NODE":"346.1554","RCS_SIZE":"LARGE","TLE_LINE2":"2 48692  53.0531 346.1554 0000634 115.7962 244.3092 15.06474937 98164","FILE":"3850163","OBJECT_NAME":"STARLINK-2752","REV_AT_EPOCH":"9816","OBJECT_TYPE":"PAYLOAD","TIME_SYSTEM":"UTC","CLASSIFICATION_TYPE":"U","MEAN_MOTION_DDOT":"0.0000000000000","ECCENTRICITY":"0.00006340","TLE_LINE1":"1 48692U 21044BG  23062.16956598  .00052005  00000-0  34775-2 0  9992","INCLINATION":"53.0531","DECAY_DATE":null}];
